[{"OBJECT_NAME":"STARLINK-3925","OBJECT_ID":"2022-049AZ","EPOCH":"2026-03-09T22:11:12.286464","MEAN_MOTION":15.08844188,"ECCENTRICITY":0.00015747,"INCLINATION":53.22,"RA_OF_ASC_NODE":38.0652,"ARG_OF_PERICENTER":95.9411,"MEAN_ANOMALY":264.1761,"EPHEMERIS_TYPE":0,"CLASSIFICATION_TYPE":"U","NORAD_CAT_ID":52498,"ELEMENT_SET_NO":999,"REV_AT_EPOCH":21256,"BSTAR":-6.3147914e-5,"MEAN_MOTION_DOT":-1.293e-5,"MEAN_MOTION_DDOT":0},{"OBJECT_NAME":"COSMOS 252","OBJECT_ID":"1968-097A","EPOCH":"2026-03-09T07:24:26.509824","MEAN_MOTION":12.88259748,"ECCENTRICITY":0.10045094,"INCLINATION":62.3208,"RA_OF_ASC_NODE":37.8588,"ARG_OF_PERICENTER":34.9769,"MEAN_ANOMALY":331.3181,"EPHEMERIS_TYPE":0,"CLASSIFICATION_TYPE":"U","NORAD_CAT_ID":3530,"ELEMENT_SET_NO":999,"REV_AT_EPOCH":69308,"BSTAR":0.00016764967,"MEAN_MOTION_DOT":3.47e-6,"MEAN_MOTION_DDOT":0}]
